[Satellite]
VERSION=1.1
NAME=STARLINK-5094
NICKNAME=STARLINK-5094
TLE1=1 53977U 22125P   22296.91667824 -.00150238  00000+0 -10815-2 0  9994
TLE2=2 53977  53.2186   2.7592 0003186   8.0677 269.7418 15.73271582  1301
STATUS=0
